{
    "links": {
        "self": "http://www.neowsapp.com/rest/v1/neo/54054515?api_key=iIulBulltgU6a56xZRHN4H3l9WmuAYTsLGpBGhQ2"
    },
    "id": "54054515",
    "neo_reference_id": "54054515",
    "name": "(2020 SB2)",
    "designation": "2020 SB2",
    "nasa_jpl_url": "http://ssd.jpl.nasa.gov/sbdb.cgi?sstr=54054515",
    "absolute_magnitude_h": 23.811,
    "estimated_diameter": {
        "kilometers": {
            "estimated_diameter_min": 0.0459573498,
            "estimated_diameter_max": 0.1027637582
        },
        "meters": {
            "estimated_diameter_min": 45.9573498122,
            "estimated_diameter_max": 102.7637582459
        },
        "miles": {
            "estimated_diameter_min": 0.0285565644,
            "estimated_diameter_max": 0.0638544192
        },
        "feet": {
            "estimated_diameter_min": 150.778711558,
            "estimated_diameter_max": 337.1514486036
        }
    },
    "is_potentially_hazardous_asteroid": false,
    "close_approach_data": [
        {
            "close_approach_date": "2020-09-15",
            "close_approach_date_full": "2020-Sep-15 08:36",
            "epoch_date_close_approach": 1600158960000,
            "relative_velocity": {
                "kilometers_per_second": "6.4872703841",
                "kilometers_per_hour": "23354.1733826698",
                "miles_per_hour": "14511.3751221372"
            },
            "miss_distance": {
                "astronomical": "0.1497075782",
                "lunar": "58.2362479198",
                "kilometers": "22395934.821578434",
                "miles": "13916188.5958890292"
            },
            "orbiting_body": "Earth"
        }
    ],
    "orbital_data": {
        "orbit_id": "8",
        "orbit_determination_date": "2020-10-10 07:04:22",
        "first_observation_date": "2020-09-18",
        "last_observation_date": "2020-10-10",
        "data_arc_in_days": 22,
        "observations_used": 53,
        "orbit_uncertainty": "8",
        "minimum_orbit_intersection": ".129485",
        "jupiter_tisserand_invariant": "3.568",
        "epoch_osculation": "2459118.5",
        "eccentricity": ".4737718947928873",
        "semi_major_axis": "2.126142106108677",
        "inclination": "5.384832356103965",
        "ascending_node_longitude": "205.9919560191391",
        "orbital_period": "1132.366100237652",
        "perihelion_distance": "1.118835731898629",
        "perihelion_argument": "135.5195355309921",
        "aphelion_distance": "3.133448480318725",
        "perihelion_time": "2459100.803574636328",
        "mean_anomaly": "5.626018943506772",
        "mean_motion": ".3179183833960112",
        "equinox": "J2000",
        "orbit_class": {
            "orbit_class_type": "AMO",
            "orbit_class_description": "Near-Earth asteroid orbits similar to that of 1221 Amor",
            "orbit_class_range": "1.017 AU < q (perihelion) < 1.3 AU"
        }
    },
    "is_sentry_object": false
}